{"type": "FeatureCollection", "features": [ {"type": "Feature", "properties": {"norad_id": 41006, "name": "FENGYUN 1C DEB", "group": "fengyun-1c-debris", "lat": -75.05810968161789, "lon": -88.21665975093156, "alt_km": 954.2005648235954, "timestamp": "2025-12-11T22:43:47.559224+00:00", "meta": {"OBJECT_NAME": "FENGYUN 1C DEB", "OBJECT_ID": "1999-025EXL", "EPOCH": "2025-12-08T08:27:10.950912", "MEAN_MOTION": 13.85315126, "ECCENTRICITY": 0.01896295, "INCLINATION": 102.3663, "RA_OF_ASC_NODE": 211.7628, "ARG_OF_PERICENTER": 18.9212, "MEAN_ANOMALY": 341.8856, "EPHEMERIS_TYPE": 0, "CLASSIFICATION_TYPE": "U", "NORAD_CAT_ID": 41006, "ELEMENT_SET_NO": 999, "REV_AT_EPOCH": 57428, "BSTAR": 0.0041566845, "MEAN_MOTION_DOT": 5.374e-05, "MEAN_MOTION_DDOT": 0}, "tle": {"line1": "1 41006U 99025EXL 25342.35221008  .00005374  00000+0  41567-2 0  9996", "line2": "2 41006 102.3663 211.7628 0189629  18.9212 341.8856 13.85315126574285"}}, "geometry": {"type": "Point", "coordinates": [-88.21665975093156, -75.05810968161789]}}, {"type": "Feature", "properties": {"norad_id": 41007, "name": "FENGYUN 1C DEB", "group": "fengyun-1c-debris", "lat": 59.51837411315109, "lon": -149.93646095156654, "alt_km": 898.2395456837639, "timestamp": "2025-12-11T22:43:47.559246+00:00", "meta": {"OBJECT_NAME": "FENGYUN 1C DEB", "OBJECT_ID": "1999-025EXM", "EPOCH": "2025-11-29T06:55:22.773792", "MEAN_MOTION": 13.85678237, "ECCENTRICITY": 0.01723955, "INCLINATION": 99.9731, "RA_OF_ASC_NODE": 359.205, "ARG_OF_PERICENTER": 79.2855, "MEAN_ANOMALY": 282.7657, "EPHEMERIS_TYPE": 0, "CLASSIFICATION_TYPE": "U", "NORAD_CAT_ID": 41007, "ELEMENT_SET_NO": 999, "REV_AT_EPOCH": 57212, "BSTAR": 0.0017167305, "MEAN_MOTION_DOT": 2.158e-05, "MEAN_MOTION_DDOT": 0}, "tle": {"line1": "1 41007U 99025EXM 25333.28845803  .00002158  00000+0  17167-2 0  9990", "line2": "2 41007  99.9731 359.2050 0172395  79.2855 282.7657 13.85678237572123"}}, "geometry": {"type": "Point", "coordinates": [-149.93646095156654, 59.51837411315109]}}, {"type": "Feature", "properties": {"norad_id": 41011, "name": "FENGYUN 1C DEB", "group": "fengyun-1c-debris", "lat": 75.03703483268686, "lon": -111.92249760904973, "alt_km": 778.6192977812825, "timestamp": "2025-12-11T22:43:47.559257+00:00", "meta": {"OBJECT_NAME": "FENGYUN 1C DEB", "OBJECT_ID": "1999-025EXR", "EPOCH": "2025-12-10T21:18:45.300384", "MEAN_MOTION": 14.42881738, "ECCENTRICITY": 0.0310259, "INCLINATION": 99.169, "RA_OF_ASC_NODE": 29.7554, "ARG_OF_PERICENTER": 3.6391, "MEAN_ANOMALY": 356.6951, "EPHEMERIS_TYPE": 0, "CLASSIFICATION_TYPE": "U", "NORAD_CAT_ID": 41011, "ELEMENT_SET_NO": 999, "REV_AT_EPOCH": 57130, "BSTAR": 0.00084069, "MEAN_MOTION_DOT": 4.979e-05, "MEAN_MOTION_DDOT": 0}, "tle": {"line1": "1 41011U 99025EXR 25344.88802431  .00004979  00000+0  84069-3 0  9992", "line2": "2 41011  99.1690  29.7554 0310259   3.6391 356.6951 14.42881738571304"}}, "geometry": {"type": "Point", "coordinates": [-111.92249760904973, 75.03703483268686]}}, {"type": "Feature", "properties": {"norad_id": 41018, "name": "FENGYUN 1C DEB", "group": "fengyun-1c-debris", "lat": -38.97973615044343, "lon": -61.51149225424083, "alt_km": 1282.316117327905, "timestamp": "2025-12-11T22:43:47.559268+00:00", "meta": {"OBJECT_NAME": "FENGYUN 1C DEB", "OBJECT_ID": "1999-025EXY", "EPOCH": "2025-12-11T01:37:38.775360", "MEAN_MOTION": 13.52353334, "ECCENTRICITY": 0.03042761, "INCLINATION": 99.9366, "RA_OF_ASC_NODE": 289.4523, "ARG_OF_PERICENTER": 122.8636, "MEAN_ANOMALY": 240.2177, "EPHEMERIS_TYPE": 0, "CLASSIFICATION_TYPE": "U", "NORAD_CAT_ID": 41018, "ELEMENT_SET_NO": 999, "REV_AT_EPOCH": 88152, "BSTAR": 0.0022479257, "MEAN_MOTION_DOT": 1.943e-05, "MEAN_MOTION_DDOT": 0}, "tle": {"line1": "1 41018U 99025EXY 25345.06780990  .00001943  00000+0  22479-2 0  9999", "line2": "2 41018  99.9366 289.4523 0304276 122.8636 240.2177 13.52353334881520"}}, "geometry": {"type": "Point", "coordinates": [-61.51149225424083, -38.97973615044343]}}, {"type": "Feature", "properties": {"norad_id": 41822, "name": "FENGYUN 1C DEB", "group": "fengyun-1c-debris", "lat": 24.32705014884951, "lon": -123.85476971065334, "alt_km": 793.0904534874153, "timestamp": "2025-12-11T22:43:47.559277+00:00", "meta": {"OBJECT_NAME": "FENGYUN 1C DEB", "OBJECT_ID": "1999-025EXZ", "EPOCH": "2025-12-11T15:15:25.440768", "MEAN_MOTION": 14.24784752, "ECCENTRICITY": 0.00553368, "INCLINATION": 98.7324, "RA_OF_ASC_NODE": 51.8512, "ARG_OF_PERICENTER": 223.632, "MEAN_ANOMALY": 136.0477, "EPHEMERIS_TYPE": 0, "CLASSIFICATION_TYPE": "U", "NORAD_CAT_ID": 41822, "ELEMENT_SET_NO": 999, "REV_AT_EPOCH": 47357, "BSTAR": 0.0025006795, "MEAN_MOTION_DOT": 5.882e-05, "MEAN_MOTION_DDOT": 0}, "tle": {"line1": "1 41822U 99025EXZ 25345.63571112  .00005882  00000+0  25007-2 0  9995", "line2": "2 41822  98.7324  51.8512 0055336 223.6320 136.0477 14.24784752473572"}}, "geometry": {"type": "Point", "coordinates": [-123.85476971065334, 24.32705014884951]}}, {"type": "Feature", "properties": {"norad_id": 41823, "name": "FENGYUN 1C DEB", "group": "fengyun-1c-debris", "lat": -49.850785280783704, "lon": -141.20385599609892, "alt_km": 781.0676549325153, "timestamp": "2025-12-11T22:43:47.559287+00:00", "meta": {"OBJECT_NAME": "FENGYUN 1C DEB", "OBJECT_ID": "1999-025EYA", "EPOCH": "2025-12-11T14:53:59.934048", "MEAN_MOTION": 14.23506812, "ECCENTRICITY": 0.00546255, "INCLINATION": 98.7202, "RA_OF_ASC_NODE": 48.956, "ARG_OF_PERICENTER": 231.453, "MEAN_ANOMALY": 128.1746, "EPHEMERIS_TYPE": 0, "CLASSIFICATION_TYPE": "U", "NORAD_CAT_ID": 41823, "ELEMENT_SET_NO": 999, "REV_AT_EPOCH": 47342, "BSTAR": 0.0023443892, "MEAN_MOTION_DOT": 5.373e-05, "MEAN_MOTION_DDOT": 0}, "tle": {"line1": "1 41823U 99025EYA 25345.62083257  .00005373  00000+0  23444-2 0  9991", "line2": "2 41823  98.7202  48.9560 0054625 231.4530 128.1746 14.23506812473421"}}, "geometry": {"type": "Point", "coordinates": [-141.20385599609892, -49.850785280783704]}}, {"type": "Feature", "properties": {"norad_id": 41824, "name": "FENGYUN 1C DEB", "group": "fengyun-1c-debris", "lat": 80.64084585360209, "lon": -61.21562866772654, "alt_km": 833.4352443483076, "timestamp": "2025-12-11T22:43:47.559297+00:00", "meta": {"OBJECT_NAME": "FENGYUN 1C DEB", "OBJECT_ID": "1999-025EYB", "EPOCH": "2025-12-09T14:38:40.365024", "MEAN_MOTION": 14.24127812, "ECCENTRICITY": 0.0057173, "INCLINATION": 98.7308, "RA_OF_ASC_NODE": 47.6562, "ARG_OF_PERICENTER": 236.3091, "MEAN_ANOMALY": 123.2629, "EPHEMERIS_TYPE": 0, "CLASSIFICATION_TYPE": "U", "NORAD_CAT_ID": 41824, "ELEMENT_SET_NO": 999, "REV_AT_EPOCH": 47315, "BSTAR": 0.0025688, "MEAN_MOTION_DOT": 5.973e-05, "MEAN_MOTION_DDOT": 0}, "tle": {"line1": "1 41824U 99025EYB 25343.61018941  .00005973  00000+0  25688-2 0  9995", "line2": "2 41824  98.7308  47.6562 0057173 236.3091 123.2629 14.24127812473150"}}, "geometry": {"type": "Point", "coordinates": [-61.21562866772654, 80.64084585360209]}}, {"type": "Feature", "properties": {"norad_id": 41825, "name": "FENGYUN 1C DEB", "group": "fengyun-1c-debris", "lat": -44.4563948848778, "lon": 63.666150780987266, "alt_km": 816.2847168494782, "timestamp": "2025-12-11T22:43:47.559310+00:00", "meta": {"OBJECT_NAME": "FENGYUN 1C DEB", "OBJECT_ID": "1999-025EYC", "EPOCH": "2025-12-09T03:32:17.389536", "MEAN_MOTION": 14.25046246, "ECCENTRICITY": 0.00555494, "INCLINATION": 98.7437, "RA_OF_ASC_NODE": 52.192, "ARG_OF_PERICENTER": 230.7898, "MEAN_ANOMALY": 128.8342, "EPHEMERIS_TYPE": 0, "CLASSIFICATION_TYPE": "U", "NORAD_CAT_ID": 41825, "ELEMENT_SET_NO": 999, "REV_AT_EPOCH": 47297, "BSTAR": 0.002021998, "MEAN_MOTION_DOT": 4.772e-05, "MEAN_MOTION_DDOT": 0}, "tle": {"line1": "1 41825U 99025EYC 25343.14742349  .00004772  00000+0  20220-2 0  9993", "line2": "2 41825  98.7437  52.1920 0055549 230.7898 128.8342 14.25046246472975"}}, "geometry": {"type": "Point", "coordinates": [63.666150780987266, -44.4563948848778]}}, {"type": "Feature", "properties": {"norad_id": 41826, "name": "FENGYUN 1C DEB", "group": "fengyun-1c-debris", "lat": -67.74608237634479, "lon": 73.81130844217589, "alt_km": 802.764011596495, "timestamp": "2025-12-11T22:43:47.559324+00:00", "meta": {"OBJECT_NAME": "FENGYUN 1C DEB", "OBJECT_ID": "1999-025EYD", "EPOCH": "2025-12-10T21:45:22.076064", "MEAN_MOTION": 14.23727663, "ECCENTRICITY": 0.0055686, "INCLINATION": 98.7332, "RA_OF_ASC_NODE": 50.7137, "ARG_OF_PERICENTER": 228.7501, "MEAN_ANOMALY": 130.8873, "EPHEMERIS_TYPE": 0, "CLASSIFICATION_TYPE": "U", "NORAD_CAT_ID": 41826, "ELEMENT_SET_NO": 999, "REV_AT_EPOCH": 47334, "BSTAR": 0.0022505, "MEAN_MOTION_DOT": 5.181e-05, "MEAN_MOTION_DDOT": 0}, "tle": {"line1": "1 41826U 99025EYD 25344.90650551  .00005181  00000+0  22505-2 0  9995", "line2": "2 41826  98.7332  50.7137 0055686 228.7501 130.8873 14.23727663473345"}}, "geometry": {"type": "Point", "coordinates": [73.81130844217589, -67.74608237634479]}}, {"type": "Feature", "properties": {"norad_id": 41827, "name": "FENGYUN 1C DEB", "group": "fengyun-1c-debris", "lat": -0.6344683829811033, "lon": -124.94169015987293, "alt_km": 776.3837646920356, "timestamp": "2025-12-11T22:43:47.559334+00:00", "meta": {"OBJECT_NAME": "FENGYUN 1C DEB", "OBJECT_ID": "1999-025EYE", "EPOCH": "2025-12-10T15:33:15.246432", "MEAN_MOTION": 14.25246458, "ECCENTRICITY": 0.00581722, "INCLINATION": 98.7428, "RA_OF_ASC_NODE": 53.8617, "ARG_OF_PERICENTER": 219.5184, "MEAN_ANOMALY": 140.1747, "EPHEMERIS_TYPE": 0, "CLASSIFICATION_TYPE": "U", "NORAD_CAT_ID": 41827, "ELEMENT_SET_NO": 999, "REV_AT_EPOCH": 47301, "BSTAR": 0.0026161949, "MEAN_MOTION_DOT": 6.222e-05, "MEAN_MOTION_DDOT": 0}, "tle": {"line1": "1 41827U 99025EYE 25344.64809313  .00006222  00000+0  26162-2 0  9999", "line2": "2 41827  98.7428  53.8617 0058172 219.5184 140.1747 14.25246458473015"}}, "geometry": {"type": "Point", "coordinates": [-124.94169015987293, -0.6344683829811033]}}]}